ONEWEB-0156             
1 48052U 21025L   23059.44579494  .00000357  00000+0  94264-3 0  9996
2 48052  87.9080 199.6657 0001552 102.2671 257.8632 13.13469154 95428
ONEWEB-0156             
1 48052U 21025L   23059.67432776  .00000335  00000+0  88231-3 0  9995
2 48052  87.9080 199.6205 0001553 102.3368 257.7935 13.13469208 95461
ONEWEB-0156             
1 48052U 21025L   23059.90286054  .00000303  00000+0  79370-3 0  9996
2 48052  87.9081 199.5753 0001553 102.4861 257.6442 13.13469260 95480
ONEWEB-0156             
1 48052U 21025L   23060.89316882  .00000147  00000+0  36740-3 0  9999
2 48052  87.9082 199.3796 0001563 102.7605 257.3699 13.13469448 95610
ONEWEB-0156             
1 48052U 21025L   23061.12170139  .00000108  00000+0  26144-3 0  9993
2 48052  87.9082 199.3344 0001572 102.9984 257.1320 13.13469493 95654
ONEWEB-0156             
1 48052U 21025L   23061.80729904 -.00000005  00000+0 -49515-4 0  9994
2 48052  87.9084 199.1990 0001552 103.2232 256.9070 13.13469598 95733
ONEWEB-0156             
1 48052U 21025L   23062.34054176 -.00000086  00000+0 -27105-3 0  9995
2 48052  87.9084 199.0936 0001552 103.1443 256.9860 13.13469621 95818
ONEWEB-0156             
1 48052U 21025L   23062.41671924 -.00000097  00000+0 -30015-3 0  9995
2 48052  87.9084 199.0785 0001550 103.2759 256.8543 13.13469641 95818
ONEWEB-0156             
1 48052U 21025L   23062.87378444 -.00000159  00000+0 -46980-3 0  9993
2 48052  87.9085 198.9882 0001547 103.6263 256.5039 13.13469643 95870
